OBJECT B                
1 51825U 22019B   24303.97049077  .00038673  00000+0  14098-2 0  9990
2 51825  97.4155  14.0554 0013976 122.8987 237.3599 15.27976309147768
